{
  "type": "FeatureCollection",
  "features": [
    {
      "type": "Feature",
      "properties": {
        "norad_id": 44204,
        "name": "BEIDOU-3 IGSO-1 (C38)",
        "group": "gnss",
        "lat": -30.60704805345478,
        "lon": 18.26621728089993,
        "alt_km": 35821.10658628783,
        "timestamp": "2025-12-18T10:51:26.047694+00:00",
        "meta_object_name": "BEIDOU-3 IGSO-1 (C38)",
        "meta_object_id": "2019-023A",
        "meta_epoch": "2025-11-19T14:15:02.708640",
        "meta_mean_motion": 1.00252177,
        "meta_eccentricity": 0.0026966,
        "meta_inclination": 58.4003,
        "meta_ra_of_asc_node": 39.8168,
        "meta_arg_of_pericenter": 221.2202,
        "meta_mean_anomaly": 126.9723,
        "meta_ephemeris_type": 0,
        "meta_classification_type": "U",
        "meta_norad_cat_id": 44204,
        "meta_element_set_no": 999,
        "meta_rev_at_epoch": 510,
        "meta_bstar": 0,
        "meta_mean_motion_dot": -2.26e-06,
        "meta_mean_motion_ddot": 0,
        "tle_line1": "1 44204U 19023A   25323.59378135 -.00000226  00000+0  00000+0 0  9994",
        "tle_line2": "2 44204  58.4003  39.8168 0026966 221.2202 126.9723  1.00252177  5102"
      },
      "geometry": {
        "type": "Point",
        "coordinates": [
          18.26621728089993,
          -30.60704805345478
        ]
      }
    },
    {
      "type": "Feature",
      "properties": {
        "norad_id": 44231,
        "name": "BEIDOU-2 G8 (C01)",
        "group": "gnss",
        "lat": -1.0593375302035124,
        "lon": 34.673106508712536,
        "alt_km": 35769.88778762289,
        "timestamp": "2025-12-18T10:51:26.047710+00:00",
        "meta_object_name": "BEIDOU-2 G8 (C01)",
        "meta_object_id": "2019-027A",
        "meta_epoch": "2025-12-17T20:51:37.267776",
        "meta_mean_motion": 1.00266922,
        "meta_eccentricity": 0.00087563,
        "meta_inclination": 1.6746,
        "meta_ra_of_asc_node": 74.7233,
        "meta_arg_of_pericenter": 258.9366,
        "meta_mean_anomaly": 210.4054,
        "meta_ephemeris_type": 0,
        "meta_classification_type": "U",
        "meta_norad_cat_id": 44231,
        "meta_element_set_no": 999,
        "meta_rev_at_epoch": 2426,
        "meta_bstar": 0,
        "meta_mean_motion_dot": -2.25e-06,
        "meta_mean_motion_ddot": 0,
        "tle_line1": "1 44231U 19027A   25351.86918134 -.00000225  00000+0  00000+0 0  9997",
        "tle_line2": "2 44231   1.6746  74.7233 0008756 258.9366 210.4054  1.00266922 24269"
      },
      "geometry": {
        "type": "Point",
        "coordinates": [
          34.673106508712536,
          -1.0593375302035124
        ]
      }
    },
    {
      "type": "Feature",
      "properties": {
        "norad_id": 44299,
        "name": "COSMOS 2534 (758)",
        "group": "gnss",
        "lat": 63.93060454839933,
        "lon": -82.24998531656007,
        "alt_km": 19144.142914258326,
        "timestamp": "2025-12-18T10:51:26.047723+00:00",
        "meta_object_name": "COSMOS 2534 (758)",
        "meta_object_id": "2019-030A",
        "meta_epoch": "2025-12-17T20:57:14.230368",
        "meta_mean_motion": 2.13102433,
        "meta_eccentricity": 0.00087784,
        "meta_inclination": 64.3657,
        "meta_ra_of_asc_node": 198.72,
        "meta_arg_of_pericenter": 284.1982,
        "meta_mean_anomaly": 76.6096,
        "meta_ephemeris_type": 0,
        "meta_classification_type": "U",
        "meta_norad_cat_id": 44299,
        "meta_element_set_no": 999,
        "meta_rev_at_epoch": 5106,
        "meta_bstar": 0,
        "meta_mean_motion_dot": 1.11e-06,
        "meta_mean_motion_ddot": 0,
        "tle_line1": "1 44299U 19030A   25351.87308137  .00000111  00000+0  00000+0 0  9995",
        "tle_line2": "2 44299  64.3657 198.7200 0008778 284.1982  76.6096  2.13102433 51067"
      },
      "geometry": {
        "type": "Point",
        "coordinates": [
          -82.24998531656007,
          63.93060454839933
        ]
      }
    },
    {
      "type": "Feature",
      "properties": {
        "norad_id": 44337,
        "name": "BEIDOU-3 IGSO-2 (C39)",
        "group": "gnss",
        "lat": -23.660107570426543,
        "lon": -1.8119595792160716,
        "alt_km": 35633.683160939734,
        "timestamp": "2025-12-18T10:51:26.047735+00:00",
        "meta_object_name": "BEIDOU-3 IGSO-2 (C39)",
        "meta_object_id": "2019-035A",
        "meta_epoch": "2025-12-17T20:45:00.400608",
        "meta_mean_motion": 1.00269779,
        "meta_eccentricity": 0.00374701,
        "meta_inclination": 55.227,
        "meta_ra_of_asc_node": 160.4563,
        "meta_arg_of_pericenter": 202.3425,
        "meta_mean_anomaly": 154.6367,
        "meta_ephemeris_type": 0,
        "meta_classification_type": "U",
        "meta_norad_cat_id": 44337,
        "meta_element_set_no": 999,
        "meta_rev_at_epoch": 2384,
        "meta_bstar": 0,
        "meta_mean_motion_dot": -4.5e-07,
        "meta_mean_motion_ddot": 0,
        "tle_line1": "1 44337U 19035A   25351.86458797 -.00000045  00000+0  00000+0 0  9997",
        "tle_line2": "2 44337  55.2270 160.4563 0037470 202.3425 154.6367  1.00269779 23848"
      },
      "geometry": {
        "type": "Point",
        "coordinates": [
          -1.8119595792160716,
          -23.660107570426543
        ]
      }
    },
    {
      "type": "Feature",
      "properties": {
        "norad_id": 44506,
        "name": "GPS BIII-2  (PRN 18)",
        "group": "gnss",
        "lat": -20.72624919772087,
        "lon": 173.27217413890082,
        "alt_km": 20032.91502176374,
        "timestamp": "2025-12-18T10:51:26.047747+00:00",
        "meta_object_name": "GPS BIII-2  (PRN 18)",
        "meta_object_id": "2019-056A",
        "meta_epoch": "2025-12-17T03:59:08.759040",
        "meta_mean_motion": 2.00566605,
        "meta_eccentricity": 0.00577134,
        "meta_inclination": 55.7199,
        "meta_ra_of_asc_node": 338.3768,
        "meta_arg_of_pericenter": 198.5058,
        "meta_mean_anomaly": 157.947,
        "meta_ephemeris_type": 0,
        "meta_classification_type": "U",
        "meta_norad_cat_id": 44506,
        "meta_element_set_no": 999,
        "meta_rev_at_epoch": 4641,
        "meta_bstar": 0,
        "meta_mean_motion_dot": -8.7e-07,
        "meta_mean_motion_ddot": 0,
        "tle_line1": "1 44506U 19056A   25351.16607360 -.00000087  00000+0  00000+0 0  9999",
        "tle_line2": "2 44506  55.7199 338.3768 0057713 198.5058 157.9470  2.00566605 46412"
      },
      "geometry": {
        "type": "Point",
        "coordinates": [
          173.27217413890082,
          -20.72624919772087
        ]
      }
    },
    {
      "type": "Feature",
      "properties": {
        "norad_id": 44542,
        "name": "BEIDOU-3 M24 (C46)",
        "group": "gnss",
        "lat": 49.798968735540655,
        "lon": -49.17994941390504,
        "alt_km": 21519.96936543443,
        "timestamp": "2025-12-18T10:51:26.047758+00:00",
        "meta_object_name": "BEIDOU-3 M24 (C46)",
        "meta_object_id": "2019-061A",
        "meta_epoch": "2025-12-16T03:22:44.327712",
        "meta_mean_motion": 1.86229353,
        "meta_eccentricity": 0.00096014,
        "meta_inclination": 54.4001,
        "meta_ra_of_asc_node": 188.9011,
        "meta_arg_of_pericenter": 24.8001,
        "meta_mean_anomaly": 335.316,
        "meta_ephemeris_type": 0,
        "meta_classification_type": "U",
        "meta_norad_cat_id": 44542,
        "meta_element_set_no": 999,
        "meta_rev_at_epoch": 4238,
        "meta_bstar": 0,
        "meta_mean_motion_dot": 1.15e-06,
        "meta_mean_motion_ddot": 0,
        "tle_line1": "1 44542U 19061A   25350.14079083  .00000115  00000+0  00000+0 0  9998",
        "tle_line2": "2 44542  54.4001 188.9011 0009601  24.8001 335.3160  1.86229353 42381"
      },
      "geometry": {
        "type": "Point",
        "coordinates": [
          -49.17994941390504,
          49.798968735540655
        ]
      }
    },
    {
      "type": "Feature",
      "properties": {
        "norad_id": 44543,
        "name": "BEIDOU-3 M23 (C45)",
        "group": "gnss",
        "lat": 18.18614317802623,
        "lon": -157.58227086071398,
        "alt_km": 21509.222703274743,
        "timestamp": "2025-12-18T10:51:26.047770+00:00",
        "meta_object_name": "BEIDOU-3 M23 (C45)",
        "meta_object_id": "2019-061B",
        "meta_epoch": "2025-12-16T19:20:04.225344",
        "meta_mean_motion": 1.86227685,
        "meta_eccentricity": 0.00060954,
        "meta_inclination": 54.399,
        "meta_ra_of_asc_node": 188.847,
        "meta_arg_of_pericenter": 24.4715,
        "meta_mean_anomaly": 334.1063,
        "meta_ephemeris_type": 0,
        "meta_classification_type": "U",
        "meta_norad_cat_id": 44543,
        "meta_element_set_no": 999,
        "meta_rev_at_epoch": 4239,
        "meta_bstar": 0,
        "meta_mean_motion_dot": 1.15e-06,
        "meta_mean_motion_ddot": 0,
        "tle_line1": "1 44543U 19061B   25350.80560446  .00000115  00000+0  00000+0 0  9990",
        "tle_line2": "2 44543  54.3990 188.8470 0006095  24.4715 334.1063  1.86227685 42394"
      },
      "geometry": {
        "type": "Point",
        "coordinates": [
          -157.58227086071398,
          18.18614317802623
        ]
      }
    }
  ]
}